{
  "norad_id": 57776,
  "name": "STARLINK-30360",
  "history": [
    {
      "epoch": "2026-03-28T17:13:57.084384Z",
      "apogee_km": 484.14933439397464,
      "perigee_km": 481.95924213476155,
      "latitude_deg": 2.6720053194861268e-05,
      "longitude_deg": 2.6875264422137626,
      "height_km": 482.72975828515206,
      "semi_major_axis_km": 6861.191288264368,
      "eccentricity": 0.0001596,
      "inclination_deg": 43.0078,
      "raan_deg": 87.3098,
      "arg_perigee_deg": 275.3587,
      "mean_anomaly_deg": 84.7083,
      "mean_motion_rev_day": 15.27578266
    },
    {
      "epoch": "2026-03-30T00:37:05.045376Z",
      "apogee_km": 483.7506206818398,
      "perigee_km": 482.3652082047156,
      "latitude_deg": -1.5427962847364493e-06,
      "longitude_deg": -116.7685325829858,
      "height_km": 482.67611579124474,
      "semi_major_axis_km": 6861.194914443277,
      "eccentricity": 0.00010096,
      "inclination_deg": 43.0047,
      "raan_deg": 79.9259,
      "arg_perigee_deg": 283.2433,
      "mean_anomaly_deg": 76.8306,
      "mean_motion_rev_day": 15.27577055
    },
    {
      "epoch": "2026-03-30T10:02:00.668256Z",
      "apogee_km": 483.6752338293927,
      "perigee_km": 482.37682733748534,
      "latitude_deg": -8.22818201440177e-06,
      "longitude_deg": 99.39731991753017,
      "height_km": 482.71943361889134,
      "semi_major_axis_km": 6861.163030583439,
      "eccentricity": 9.462e-05,
      "inclination_deg": 43.0042,
      "raan_deg": 77.7102,
      "arg_perigee_deg": 277.3793,
      "mean_anomaly_deg": 82.6951,
      "mean_motion_rev_day": 15.27587703
    },
    {
      "epoch": "2026-03-30T16:18:39.475584Z",
      "apogee_km": 483.249128288463,
      "perigee_km": 482.8957760016774,
      "latitude_deg": -3.6967581609556325e-06,
      "longitude_deg": 3.4991222850035513,
      "height_km": 482.89503332220863,
      "semi_major_axis_km": 6861.20945214507,
      "eccentricity": 2.575e-05,
      "inclination_deg": 43.0013,
      "raan_deg": 76.2315,
      "arg_perigee_deg": 105.5257,
      "mean_anomaly_deg": 254.5623,
      "mean_motion_rev_day": 15.275722
    },
    {
      "epoch": "2026-03-31T15:50:59.570016Z",
      "apogee_km": 483.834982035577,
      "perigee_km": 482.2816074208513,
      "latitude_deg": 3.153992707235757e-05,
      "longitude_deg": 3.910225458905147,
      "height_km": 482.71455549746787,
      "semi_major_axis_km": 6861.195294728214,
      "eccentricity": 0.0001132,
      "inclination_deg": 43.0066,
      "raan_deg": 70.693,
      "arg_perigee_deg": 278.959,
      "mean_anomaly_deg": 81.1134,
      "mean_motion_rev_day": 15.27576928
    },
    {
      "epoch": "2026-04-01T15:23:21.182496Z",
      "apogee_km": 483.61274131017217,
      "perigee_km": 482.5890446165422,
      "latitude_deg": -4.003172625085749e-05,
      "longitude_deg": 4.316172201993149,
      "height_km": 482.73371133625244,
      "semi_major_axis_km": 6861.237892963357,
      "eccentricity": 7.46e-05,
      "inclination_deg": 43.0042,
      "raan_deg": 65.1558,
      "arg_perigee_deg": 286.3141,
      "mean_anomaly_deg": 73.7628,
      "mean_motion_rev_day": 15.27562702
    },
    {
      "epoch": "2026-04-02T21:12:19.257408Z",
      "apogee_km": 483.7501925605893,
      "perigee_km": 482.3957897083401,
      "latitude_deg": -4.1920568771745256e-05,
      "longitude_deg": -91.1689125773426,
      "height_km": 482.864255056247,
      "semi_major_axis_km": 6861.209991134465,
      "eccentricity": 9.87e-05,
      "inclination_deg": 43.0058,
      "raan_deg": 58.1372,
      "arg_perigee_deg": 268.7929,
      "mean_anomaly_deg": 91.2809,
      "mean_motion_rev_day": 15.2757202
    },
    {
      "epoch": "2026-04-03T14:28:01.628832Z",
      "apogee_km": 483.57297021057366,
      "perigee_km": 482.4902778017049,
      "latitude_deg": 2.6263199774124044e-06,
      "longitude_deg": 5.136371658787312,
      "height_km": 482.6541814517904,
      "semi_major_axis_km": 6861.168624006139,
      "eccentricity": 7.89e-05,
      "inclination_deg": 43.0043,
      "raan_deg": 54.0779,
      "arg_perigee_deg": 286.5367,
      "mean_anomaly_deg": 73.5398,
      "mean_motion_rev_day": 15.27585835
    },
    {
      "epoch": "2026-04-04T14:00:22.298688Z",
      "apogee_km": 483.47634088881387,
      "perigee_km": 482.611832071917,
      "latitude_deg": -7.140394535126724e-06,
      "longitude_deg": 5.542720802236553,
      "height_km": 482.3894642937055,
      "semi_major_axis_km": 6861.181086480366,
      "eccentricity": 6.3e-05,
      "inclination_deg": 43.004,
      "raan_deg": 48.5371,
      "arg_perigee_deg": 5.1945,
      "mean_anomaly_deg": 354.8913,
      "mean_motion_rev_day": 15.27581673
    },
    {
      "epoch": "2026-04-05T13:32:43.605312Z",
      "apogee_km": 483.8101562750253,
      "perigee_km": 482.35420556483405,
      "latitude_deg": -3.6204150671475343e-06,
      "longitude_deg": 5.947622826895081,
      "height_km": 482.76631060246007,
      "semi_major_axis_km": 6861.219180919929,
      "eccentricity": 0.0001061,
      "inclination_deg": 43.0044,
      "raan_deg": 42.9975,
      "arg_perigee_deg": 277.3223,
      "mean_anomaly_deg": 82.7508,
      "mean_motion_rev_day": 15.27568951
    },
    {
      "epoch": "2026-04-06T05:14:17.954304Z",
      "apogee_km": 483.6854858532761,
      "perigee_km": 482.487104592532,
      "latitude_deg": -1.349373456066095e-05,
      "longitude_deg": 126.21760671326888,
      "height_km": 482.7027821661471,
      "semi_major_axis_km": 6861.223295222904,
      "eccentricity": 8.733e-05,
      "inclination_deg": 43.0042,
      "raan_deg": 39.3051,
      "arg_perigee_deg": 285.5097,
      "mean_anomaly_deg": 74.5658,
      "mean_motion_rev_day": 15.27567577
    },
    {
      "epoch": "2026-04-07T04:46:38.620704Z",
      "apogee_km": 483.73773770809476,
      "perigee_km": 482.3616581039623,
      "latitude_deg": -2.133787115505294e-06,
      "longitude_deg": 126.62419088447287,
      "height_km": 482.7786504642387,
      "semi_major_axis_km": 6861.186697906028,
      "eccentricity": 0.00010028,
      "inclination_deg": 43.0049,
      "raan_deg": 33.7645,
      "arg_perigee_deg": 273.9971,
      "mean_anomaly_deg": 86.0766,
      "mean_motion_rev_day": 15.27579799
    },
    {
      "epoch": "2026-04-07T20:28:12.923904Z",
      "apogee_km": 483.200301463653,
      "perigee_km": 482.90252588649946,
      "latitude_deg": 9.043233155895542e-06,
      "longitude_deg": -113.10161205399365,
      "height_km": 482.7047508030174,
      "semi_major_axis_km": 6861.188413675076,
      "eccentricity": 2.17e-05,
      "inclination_deg": 42.9966,
      "raan_deg": 30.0761,
      "arg_perigee_deg": 35.2557,
      "mean_anomaly_deg": 324.8309,
      "mean_motion_rev_day": 15.27579226
    },
    {
      "epoch": "2026-04-08T12:09:46.519488Z",
      "apogee_km": 484.217954925276,
      "perigee_km": 481.8615523810022,
      "latitude_deg": -1.6554707814973006e-05,
      "longitude_deg": 7.167402184996218,
      "height_km": 482.7498824989696,
      "semi_major_axis_km": 6861.176753653139,
      "eccentricity": 0.00017172,
      "inclination_deg": 43.0069,
      "raan_deg": 26.3796,
      "arg_perigee_deg": 273.2895,
      "mean_anomaly_deg": 86.776,
      "mean_motion_rev_day": 15.2758312
    },
    {
      "epoch": "2026-04-09T11:42:07.491744Z",
      "apogee_km": 483.8291993415405,
      "perigee_km": 482.29901427070035,
      "latitude_deg": -4.445812106173279e-05,
      "longitude_deg": 7.575266183893,
      "height_km": 482.7578302999759,
      "semi_major_axis_km": 6861.20110680612,
      "eccentricity": 0.00011151,
      "inclination_deg": 43.0057,
      "raan_deg": 20.8416,
      "arg_perigee_deg": 276.2568,
      "mean_anomaly_deg": 83.8156,
      "mean_motion_rev_day": 15.27574987
    },
    {
      "epoch": "2026-04-10T03:23:41.318016Z",
      "apogee_km": 483.8003906278773,
      "perigee_km": 482.31823500038354,
      "latitude_deg": -1.791532443463873e-05,
      "longitude_deg": 127.84687235563393,
      "height_km": 482.77967270906714,
      "semi_major_axis_km": 6861.196312814131,
      "eccentricity": 0.00010801,
      "inclination_deg": 43.0054,
      "raan_deg": 17.1486,
      "arg_perigee_deg": 274.3864,
      "mean_anomaly_deg": 85.6864,
      "mean_motion_rev_day": 15.27576588
    },
    {
      "epoch": "2026-04-11T10:46:48.472032Z",
      "apogee_km": 483.9124914458034,
      "perigee_km": 482.1834728303038,
      "latitude_deg": 1.2699444630498015e-06,
      "longitude_deg": 8.394632350160759,
      "height_km": 482.6894902578641,
      "semi_major_axis_km": 6861.184982138053,
      "eccentricity": 0.000126,
      "inclination_deg": 43.0013,
      "raan_deg": 9.7651,
      "arg_perigee_deg": 278.9992,
      "mean_anomaly_deg": 81.0717,
      "mean_motion_rev_day": 15.27580372
    },
    {
      "epoch": "2026-04-13T02:00:43.282656Z",
      "apogee_km": 483.90173979748215,
      "perigee_km": 482.15241740400234,
      "latitude_deg": 3.429156758722739e-05,
      "longitude_deg": 129.07279209689509,
      "height_km": 482.5778434904125,
      "semi_major_axis_km": 6861.164078600742,
      "eccentricity": 0.00012748,
      "inclination_deg": 43.0036,
      "raan_deg": 0.5328,
      "arg_perigee_deg": 284.9895,
      "mean_anomaly_deg": 75.0816,
      "mean_motion_rev_day": 15.27587353
    },
    {
      "epoch": "2026-04-14T09:23:51.476928Z",
      "apogee_km": 483.9810466134768,
      "perigee_km": 482.11645077441244,
      "latitude_deg": 2.9338171314124097e-05,
      "longitude_deg": 9.61368396803708,
      "height_km": 482.62274848757687,
      "semi_major_axis_km": 6861.185748693944,
      "eccentricity": 0.00013588,
      "inclination_deg": 43.0,
      "raan_deg": 353.1468,
      "arg_perigee_deg": 282.5554,
      "mean_anomaly_deg": 77.5146,
      "mean_motion_rev_day": 15.27580116
    },
    {
      "epoch": "2026-04-15T08:56:12.225408Z",
      "apogee_km": 483.8788061809464,
      "perigee_km": 482.20646225690143,
      "latitude_deg": -2.7539518314740247e-05,
      "longitude_deg": 10.021756623460634,
      "height_km": 482.6643075300021,
      "semi_major_axis_km": 6861.179634218924,
      "eccentricity": 0.00012187,
      "inclination_deg": 43.0037,
      "raan_deg": 347.6081,
      "arg_perigee_deg": 280.7032,
      "mean_anomaly_deg": 79.3682,
      "mean_motion_rev_day": 15.27582158
    }
  ]
}